#cP2022 11 20  0  0  0.00000000      96 ORBIT IGb14 HLM  IGS
## 2237      0.00000000   900.00000000 59903 0.0000000000000
+   31   G01G02G03G04G05G06G07G08G09G10G11G12G13G14G15G16G17
+        G18G19G20G21G22G23G24G25G26G27G29G30G31G32  0  0  0
+          0  0  0  0  0  0  0  0  0  0  0  0  0  0  0  0  0
+          0  0  0  0  0  0  0  0  0  0  0  0  0  0  0  0  0
+          0  0  0  0  0  0  0  0  0  0  0  0  0  0  0  0  0
++         2  2  2  3  2  2  2  2  2  2  3  2  2  3  2  2  2
++         3  2  2  2  2  3  2  2  2  2  2  2  2  2  0  0  0
++         0  0  0  0  0  0  0  0  0  0  0  0  0  0  0  0  0
++         0  0  0  0  0  0  0  0  0  0  0  0  0  0  0  0  0
++         0  0  0  0  0  0  0  0  0  0  0  0  0  0  0  0  0
%c G  cc GPS ccc cccc cccc cccc cccc ccccc ccccc ccccc ccccc
%c cc cc ccc ccc cccc cccc cccc cccc ccccc ccccc ccccc ccccc
%f  1.2500000  1.025000000  0.00000000000  0.000000000000000
%f  0.0000000  0.000000000  0.00000000000  0.000000000000000
%i    0    0    0    0      0      0      0      0         0
%i    0    0    0    0      0      0      0      0         0
/* RAPID ORBIT COMBINATION FROM WEIGHTED AVERAGE OF:        
/* cod emr esa gfz jpl ngs sio usn whu                      
/* REFERENCED TO IGS TIME (IGST) AND TO WEIGHTED MEAN POLE: 
/* PCV:IGS14_2233 OL/AL:FES2004  NONE     Y  ORB:CMB CLK:CMB
*  2022 11 20 18 45  0.00000000
PG01 -21891.932480 -13731.309005   6558.931753    248.923696  6  8  8  84       
PG02  22932.476225   9866.911059  -8131.209147   -636.947394  2  3  4  88       
PG03 -12944.132370  -8945.079217  21293.095633   -373.642402  5  3  3  99       
PG04 -22885.347515  -2633.654944  13313.923709    -82.976210  8 10  7  54       
PG05   7373.354088  20830.944961 -14820.249244   -105.053688  6  7  7 120       
PG06  -2774.664323  16007.781245  21060.014363    522.840956  4  7  3  86       
PG07 -19843.396934   -755.517568 -17445.371446    284.972188  7  9  7  95       
PG08 -14903.777631  -9361.085243 -20041.015407    -94.760205  5  7  4 113       
PG09 -25416.524991   7138.038657   3053.723627   -265.742630  5  5  5  59       
PG10  11300.686430 -21310.213527 -10593.233443    -12.725566  4  4  6 105       
PG11   8264.229821  21177.345090  13773.823103    -42.915269  7 12 10  97       
PG12  12100.395415  10559.366346  20904.880702   -306.574214  6  6  6 102       
PG13   6450.381577  13998.968237 -21822.309609    428.089355  6  9  4 116       
PG14 -13326.243212  19397.439634 -12192.080639    -80.292335  8 10  6 125       
PG15  16203.961271   8353.956019 -19849.700382    -10.773758  3  5  6 123       
PG16  -1504.893054 -23765.790646 -11542.547933   -526.854632  5  9  6  99       
PG17 -20762.975099  13204.411349  10537.786066    679.567779  2  6  3  77       
PG18  18226.689438  -1318.616462 -19325.717010    -29.259091  8  8 10 107       
PG19 -11489.544972  15260.529412  18108.937774    239.975588  3  6  4 101       
PG20   1034.891925  26557.179419  -2377.554963    468.764532  6  7  3  89       
PG21 -21206.448682 -16566.249346  -1300.447104    155.627208  7  6  7 116       
PG22   7952.145178 -16296.541815  19771.523755    368.558119  5  7  4 112       
PG23  14768.232903 -11843.084663 -18577.508007     -0.895297  9 10 10 117       
PG24  22330.677644  14658.075512   1727.406466     50.662461  5  6  7 119       
PG25  15511.653462  -1647.038999  21167.381732    394.509496  2  7  4  97       
PG26   3618.888410 -26122.310071    392.300535    236.351863  5  9  4 102       
PG27  -2722.128659 -14990.581538 -21948.943733    173.403018  4  5  5 103       
PG29  25921.225384  -3543.872836   4780.738041   -568.578136  2  6  5  96       
PG30 -11578.481196  10700.572768 -21294.376433   -536.505378  5  6  3 111       
PG31   2170.054291 -17072.462669  19946.060152   -200.812455  2  5  6  87       
PG32  17713.687665 -15489.658261  12272.081598   -302.758926  6  3  6 111       
*  2022 11 20 19  0  0.00000000
PG01 -22272.128909 -14240.903749   3747.243646    248.918673  6  8  8  89       
PG02  23494.424992  10556.541984  -5395.171140   -636.945978  3  2  4  87       
PG03 -12509.984943 -11312.297498  20422.952148   -373.643799  4  3  4  97       
PG04 -21394.068681  -3344.657531  15452.550296    -82.970143  8 10  7  84       
PG05   7006.109373  22345.583625 -12588.489360   -105.055147  6  7  7 115       
PG06  -4686.196954  14501.726024  21808.251777    522.848921  6  7  3  72       
PG07 -21253.710036  -2116.353320 -15666.600761    284.967639  7  9  7 105       
PG08 -12775.977360 -10314.749546 -20988.329510    -94.762236  4  7  3 110       
PG09 -25038.031129   6697.046871   5834.034218   -265.737563  4  6  5  62       
PG10  11289.738787 -19913.036875 -13036.482305    -12.727087  5  4  6 105       
PG11   6886.838156  20177.156273  15870.717560    -42.920970  7 12 10  98       
PG12  11488.203756  12869.815255  19955.226032   -306.578120  6  7  6  93       
PG13   4051.018945  14571.811118 -22008.920724    428.095267  6  9  4 116       
PG14 -13262.876414  17851.125279 -14427.914841    -80.287528  9  9  7 125       
PG15  14285.733027   9514.089094 -20774.548239    -10.770756  3  5  5 120       
PG16   -998.489263 -24825.359061  -8986.306528   -526.854776  5  9  6  50       
PG17 -21766.236051  13334.788563   7918.721226    679.571072  3  6  3  96       
PG18  19776.239700    127.307334 -17798.495315    -29.271808  8  8 10 102       
PG19 -13477.679491  15635.402878  16332.259403    239.980142  3  6  4 100       
PG20    755.984961  26671.909502    432.234241    468.762064  6  6  3  87       
PG21 -20790.110505 -16523.765973  -4091.339800    155.626081  7  7  7 112       
PG22  10009.097939 -16768.962129  18345.357408    368.565201  5  6  4 112       
PG23  14601.321228  -9641.884748 -19944.920597     -0.894950  9  9 10 111       
PG24  22224.711967  14946.370279  -1049.744693     50.647836  5  6  7 107       
PG25  15186.962548    839.315787  21469.085862    394.512864  3  7  4  92       
PG26   3948.165218 -25871.398200   3207.163175    236.352789  6  9  3 100       
PG27   -428.831749 -15826.036250 -21482.641467    173.394952  5  5  5  89       
PG29  25298.495075  -3157.157711   7551.144222   -568.580483  3  6  5 109       
PG30 -13439.885776   9117.932364 -20958.946525   -536.504992  5  7  3 115       
PG31   4055.607885 -15618.003817  20857.837607   -200.813462  2  6  6  83       
PG32  18962.707407 -15729.364836   9807.368434   -302.770366  6  4  5 110       
*  2022 11 20 19 15  0.00000000
PG01 -22423.155429 -14535.293970    872.029273    248.913669  6  8  8  76       
PG02  23818.745625  11046.370974  -2563.613119   -636.944265  4  4  3  93       
PG03 -12216.933526 -13579.484699  19198.473005   -373.645151  4  4  4 108       
PG04 -19732.201590  -4219.925429  17326.499163    -82.964095  8 10  8 103       
PG05   6731.619317  23614.652832 -10140.753180   -105.056863  7  7  7 119       
PG06  -6730.688763  13069.505565  22183.161446    522.856892  6  7  3  77       
PG07 -22551.667567  -3271.587835 -13615.996203    284.963557  7  9  8 112       
PG08 -10620.441446 -11418.342708 -21578.051311    -94.762712  4  7  3 111       
PG09 -24404.126336   6103.009535   8513.997170   -265.732413  4  5  6  89       
PG10  11328.992917 -18251.717054 -15249.787301    -12.728321  5  5  7  92       
PG11   5284.966265  19112.651483  17695.060740    -42.926554  7 12  9 100       
PG12  11020.528031  15080.295070  18655.063188   -306.582619  6  7  6  99       
PG13   1684.208691  15273.597701 -21822.932152    428.101535  7  9  4 116       
PG14 -13245.612616  16066.939365 -16414.018942    -80.282723  9  9  7 122       
PG15  12354.795309  10811.175925 -21357.084378    -10.767848  3  6  5 125       
PG16   -600.572095 -25616.558391  -6272.981863   -526.854960  6  9  5  90       
PG17 -22481.456077  13409.952398   5165.919571    679.573791  4  6  3  89       
PG18  21248.813374   1372.981136 -15966.576284    -29.284509  8  8 10 104       
PG19 -15233.556627  16046.856578  14266.849308    239.984920  2  5  4  81       
PG20    462.797792  26485.815282   3234.691038    468.759360  6  6  3  89       
PG21 -20102.988243 -16349.835785  -6814.153050    155.625432  8  8  7 109       
PG22  11875.805471 -17289.974799  16611.696397    368.572327  5  6  5 119       
PG23  14543.416258  -7300.741764 -20968.057660     -0.894677  9  8  9 113       
PG24  21869.315228  15078.678787  -3809.342753     50.633189  6  6  7 110       
PG25  14986.837965   3348.926266  21390.817621    394.516188  3  6  4  99       
PG26   4277.648492 -25319.382153   5965.597038    236.353672  6  8  4 103       
PG27   1753.907389 -16754.935267 -20651.895457    173.386866  6  5  5  97       
PG29  24410.120809  -2630.484990  10192.008719   -568.582895  2  5  5 109       
PG30 -15326.046369   7662.917536 -20261.031243   -536.504581  5  7  3 117       
PG31   6075.221509 -14212.487833  21402.956524   -200.814349  1  6  6  92       
PG32  19937.292483 -15910.536486   7173.066656   -302.781830  7  4  5 114       
EOF
